NORAD_CAT_ID,OBJECT_NAME,OBJECT_TYPE,EPOCH,MEAN_MOTION,ECCENTRICITY,INCLINATION,RA_OF_ASC_NODE,ARG_OF_PERICENTER,MEAN_ANOMALY,BSTAR,MEAN_MOTION_DOT,MEAN_MOTION_DDOT,TLE_LINE0,TLE_LINE1,TLE_LINE2,SEMIMAJOR_AXIS,PERIOD,APOGEE,PERIGEE,DECAYED
51859.0,STARLINK-3560,PAYLOAD,2024-07-30 23:13:14,15.08836106,0.0001207,53.219,123.03,106.4171,253.6953,0.00019545,2.824e-05,0.0,0 STARLINK-3560,1 51859U 22022H   24212.96752668  .00002824  00000-0  19545-3 0  9999,2 51859  53.2190 123.0300 0001207 106.4171 253.6953 15.08836106134581,6917.892,95.438,540.592,538.922,0.0
51859.0,STARLINK-3560,PAYLOAD,2024-07-31 00:48:37,15.08842918,0.0001384,53.2179,122.734,101.2204,258.8944,8.8123e-05,1.115e-05,0.0,0 STARLINK-3560,1 51859U 22022H   24213.03376558  .00001115  00000-0  88123-4 0  9999,2 51859  53.2179 122.7340 0001384 101.2204 258.8944 15.08842918134590,6917.871,95.437,540.694,538.779,0.0
51859.0,STARLINK-3560,PAYLOAD,2024-07-31 21:28:38,15.08834816,9.24e-05,53.2176,118.8664,114.5234,245.5854,-6.1958e-06,-3.86e-06,0.0,0 STARLINK-3560,1 51859U 22022H   24213.89489216 -.00000386  00000-0 -61958-5 0  9998,2 51859  53.2176 118.8664 0000924 114.5234 245.5854 15.08834816134727,6917.896,95.438,540.4,539.122,0.0
51859.0,STARLINK-3560,PAYLOAD,2024-07-31 23:04:02,15.08828446,0.0001296,53.217,118.5675,93.0936,267.0204,-7.0448e-05,-1.409e-05,0.0,0 STARLINK-3560,1 51859U 22022H   24213.96113938 -.00001409  00000-0 -70448-4 0  9991,2 51859  53.2170 118.5675 0001296  93.0936 267.0204 15.08828446134734,6917.916,95.438,540.677,538.884,0.0
51859.0,STARLINK-3560,PAYLOAD,2024-08-01 00:39:25,15.0883092,0.0001354,53.2179,118.2773,98.594,261.5205,-0.00011507,-2.118e-05,0.0,0 STARLINK-3560,1 51859U 22022H   24214.02737940 -.00002118  00000-0 -11507-3 0  9992,2 51859  53.2179 118.2773 0001354  98.5940 261.5205 15.08830920134740,6917.908,95.438,540.71,538.836,0.0
51859.0,STARLINK-3560,PAYLOAD,2024-08-01 21:19:25,15.08842901,0.0001219,53.2173,114.4044,81.6776,278.4354,4.0186e-05,3.52e-06,0.0,0 STARLINK-3560,1 51859U 22022H   24214.88848798  .00000352  00000-0  40186-4 0  9992,2 51859  53.2173 114.4044 0001219  81.6776 278.4354 15.08842901134871,6917.872,95.437,540.58,538.893,0.0
51859.0,STARLINK-3560,PAYLOAD,2024-08-01 22:54:48,15.08844967,0.0001326,53.2181,114.1081,90.5795,269.5349,8.3128e-05,1.035e-05,0.0,0 STARLINK-3560,1 51859U 22022H   24214.95472524  .00001035  00000-0  83128-4 0  9992,2 51859  53.2181 114.1081 0001326  90.5795 269.5349 15.08844967134887,6917.865,95.437,540.648,538.813,0.0
51859.0,STARLINK-3560,PAYLOAD,2024-08-02 00:30:10,15.08854636,0.0001314,53.2173,113.818,100.932,259.182,0.00018565,2.669e-05,0.0,0 STARLINK-3560,1 51859U 22022H   24215.02095731  .00002669  00000-0  18565-3 0  9998,2 51859  53.2173 113.8180 0001314 100.9320 259.1820 15.08854636134895,6917.836,95.437,540.61,538.792,0.0
51859.0,STARLINK-3560,PAYLOAD,2024-08-02 10:02:27,15.08870561,0.0001331,53.2171,112.0284,77.556,282.5581,0.00031122,4.673e-05,0.0,0 STARLINK-3560,1 51859U 22022H   24215.41837731  .00004673  00000-0  31122-3 0  9996,2 51859  53.2171 112.0284 0001331  77.5560 282.5581 15.08870561134959,6917.787,95.436,540.573,538.731,0.0
51859.0,STARLINK-3560,PAYLOAD,2024-08-02 21:10:14,15.08803718,0.0001399,53.2179,109.9451,73.05,287.0645,-0.00011441,-2.106e-05,0.0,0 STARLINK-3560,1 51859U 22022H   24215.88211572 -.00002106  00000-0 -11441-3 0  9999,2 51859  53.2179 109.9451 0001399  73.0500 287.0645 15.08803718135027,6917.991,95.44,540.824,538.888,0.0
51859.0,STARLINK-3560,PAYLOAD,2024-08-02 22:45:37,15.08805788,0.0001566,53.2175,109.6468,69.6472,290.4688,-9.7293e-05,-1.835e-05,0.0,0 STARLINK-3560,1 51859U 22022H   24215.94835582 -.00001835  00000-0 -97293-4 0  9997,2 51859  53.2175 109.6468 0001566  69.6472 290.4688 15.08805788135038,6917.985,95.44,540.933,538.767,0.0
51859.0,STARLINK-3560,PAYLOAD,2024-08-03 03:31:47,15.08811759,0.0001606,53.218,108.7551,71.2488,288.8678,-3.7805e-05,-8.89e-06,0.0,0 STARLINK-3560,1 51859U 22022H   24216.14707315 -.00000889  00000-0 -37805-4 0  9993,2 51859  53.2180 108.7551 0001606  71.2488 288.8678 15.08811759135066,6917.967,95.439,540.943,538.721,0.0
51859.0,STARLINK-3560,PAYLOAD,2024-08-03 21:01:00,15.08844594,0.0001554,53.2183,105.4887,93.1273,266.9897,-2.9123e-05,-7.52e-06,0.0,0 STARLINK-3560,1 51859U 22022H   24216.87569781 -.00000752  00000-0 -29123-4 0  9999,2 51859  53.2183 105.4887 0001554  93.1273 266.9897 15.08844594135177,6917.866,95.437,540.806,538.656,0.0
51859.0,STARLINK-3560,PAYLOAD,2024-08-03 22:36:23,15.08841573,0.0001648,53.2177,105.1912,86.4587,273.6594,-1.1177e-05,-4.66e-06,0.0,0 STARLINK-3560,1 51859U 22022H   24216.94193509 -.00000466  00000-0 -11177-4 0  9990,2 51859  53.2177 105.1912 0001648  86.4587 273.6594 15.08841573135187,6917.876,95.437,540.881,538.601,0.0
51859.0,STARLINK-3560,PAYLOAD,2024-08-04 09:44:04,15.08855986,0.0001544,53.2173,103.1093,84.496,275.6208,0.00050026,7.686e-05,0.0,0 STARLINK-3560,1 51859U 22022H   24217.40561167  .00007686  00000-0  50026-3 0  9995,2 51859  53.2173 103.1093 0001544  84.4960 275.6208 15.08855986135254,6917.832,95.437,540.765,538.628,0.0
51859.0,STARLINK-3560,PAYLOAD,2024-08-04 20:51:47,15.0884677,0.0002061,53.217,101.0212,103.1993,256.9229,0.0003339,5.031e-05,0.0,0 STARLINK-3560,1 51859U 22022H   24217.86929789  .00005031  00000-0  33390-3 0  9990,2 51859  53.2170 101.0212 0002061 103.1993 256.9229 15.08846770135325,6917.86,95.437,541.15,538.299,0.0
51859.0,STARLINK-3560,PAYLOAD,2024-08-04 22:27:10,15.0883769,9.52e-05,53.2168,100.7313,86.7954,273.3147,0.00037737,5.723e-05,0.0,0 STARLINK-3560,1 51859U 22022H   24217.93554091  .00005723  00000-0  37737-3 0  9995,2 51859  53.2168 100.7313 0000952  86.7954 273.3147 15.08837690135334,6917.887,95.438,540.411,539.094,0.0
51859.0,STARLINK-3560,PAYLOAD,2024-08-05 20:42:34,15.08808131,0.0001259,53.2162,96.5649,85.3713,274.7423,-0.00078525,-0.00012752,0.0,0 STARLINK-3560,1 51859U 22022H   24218.86290092 -.00012752  00000-0 -78525-3 0  9998,2 51859  53.2162  96.5649 0001259  85.3713 274.7423 15.08808131135476,6917.978,95.44,540.714,538.972,0.0
51859.0,STARLINK-3560,PAYLOAD,2024-08-05 22:17:57,15.08813118,0.0001292,53.2161,96.2667,88.8024,271.3117,-0.00059203,-9.691e-05,0.0,0 STARLINK-3560,1 51859U 22022H   24218.92914301 -.00009691  00000-0 -59203-3 0  9991,2 51859  53.2161  96.2667 0001292  88.8024 271.3117 15.08813118135487,6917.963,95.439,540.721,538.934,0.0
51859.0,STARLINK-3560,PAYLOAD,2024-08-06 18:57:59,15.08855051,0.0001166,53.2158,92.4041,70.7367,289.3751,0.0019439,0.00030797,0.0,0 STARLINK-3560,1 51859U 22022H   24219.79027095  .00030797  00000-0  19439-2 0  9997,2 51859  53.2158  92.4041 0001166  70.7367 289.3751 15.08855051135617,6917.834,95.437,540.506,538.893,0.0
51859.0,STARLINK-3560,PAYLOAD,2024-08-06 22:08:45,15.08865043,0.0001162,53.216,91.8091,71.3089,288.8029,0.0020816,0.00033019,0.0,0 STARLINK-3560,1 51859U 22022H   24219.92274898  .00033019  00000-0  20816-2 0  9998,2 51859  53.2160  91.8091 0001162  71.3089 288.8029 15.08865043135638,6917.804,95.436,540.473,538.865,0.0
51859.0,STARLINK-3560,PAYLOAD,2024-08-07 01:19:31,15.08874853,0.0001155,53.2161,91.2142,71.7622,288.3496,0.0021409,0.00033982,0.0,0 STARLINK-3560,1 51859U 22022H   24220.05522609  .00033982  00000-0  21409-2 0  9998,2 51859  53.2161  91.2142 0001155  71.7622 288.3496 15.08874853135653,6917.774,95.435,540.438,538.84,0.0
51859.0,STARLINK-3560,PAYLOAD,2024-08-07 20:24:08,15.08858147,0.0001669,53.2166,87.6399,118.5622,241.5538,0.00036675,5.556e-05,0.0,0 STARLINK-3560,1 51859U 22022H   24220.85009963  .00005556  00000-0  36675-3 0  9997,2 51859  53.2166  87.6399 0001669 118.5622 241.5538 15.08858147135770,6917.825,95.436,540.845,538.535,0.0
51859.0,STARLINK-3560,PAYLOAD,2024-08-08 01:10:18,15.08865574,0.0001285,53.2161,86.7562,54.3738,305.7374,0.0006995,0.0001087,0.0,0 STARLINK-3560,1 51859U 22022H   24221.04882040  .00010870  00000-0  69950-3 0  9991,2 51859  53.2161  86.7562 0001285  54.3738 305.7374 15.08865574135803,6917.802,95.436,540.556,538.778,0.0
51859.0,STARLINK-3560,PAYLOAD,2024-08-08 21:50:18,15.08844958,0.0001329,53.2162,82.8838,103.8246,256.2894,0.00011821,1.594e-05,0.0,0 STARLINK-3560,1 51859U 22022H   24221.90993989  .00001594  00000-0  11821-3 0  9998,2 51859  53.2162  82.8838 0001329 103.8246 256.2894 15.08844958135934,6917.865,95.437,540.65,538.811,0.0
51859.0,STARLINK-3560,PAYLOAD,2024-08-09 07:22:36,15.08862309,0.0001293,53.2172,81.1032,72.1314,287.9819,0.00031985,4.809e-05,0.0,0 STARLINK-3560,1 51859U 22022H   24222.30737158  .00004809  00000-0  31985-3 0  9992,2 51859  53.2172  81.1032 0001293  72.1314 287.9819 15.08862309135991,6917.812,95.436,540.572,538.783,0.0
51859.0,STARLINK-3560,PAYLOAD,2024-08-09 20:05:43,15.08828471,0.0001496,53.2169,78.7211,76.7824,283.3335,-0.00015386,-2.735e-05,0.0,0 STARLINK-3560,1 51859U 22022H   24222.83730660 -.00002735  00000-0 -15386-3 0  9996,2 51859  53.2169  78.7211 0001496  76.7824 283.3335 15.08828471136074,6917.916,95.438,540.816,538.746,0.0
51859.0,STARLINK-3560,PAYLOAD,2024-08-09 21:41:06,15.08836029,0.000151,53.2178,78.4314,108.4211,251.6945,-1.9144e-05,-5.93e-06,0.0,0 STARLINK-3560,1 51859U 22022H   24222.90354483 -.00000593  00000-0 -19144-4 0  9996,2 51859  53.2178  78.4314 0001510 108.4211 251.6945 15.08836029136089,6917.893,95.438,540.802,538.713,0.0
51859.0,STARLINK-3560,PAYLOAD,2024-08-09 23:16:29,15.08844967,0.0001121,53.2167,78.1261,83.142,276.97,0.00018635,2.68e-05,0.0,0 STARLINK-3560,1 51859U 22022H   24222.96978139  .00002680  00000-0  18635-3 0  9992,2 51859  53.2167  78.1261 0001121  83.1420 276.9700 15.08844967136094,6917.865,95.437,540.506,538.955,0.0
51859.0,STARLINK-3560,PAYLOAD,2024-08-10 13:34:57,15.08843409,0.0001205,53.2175,75.4552,82.4426,277.6703,0.00022883,3.356e-05,0.0,0 STARLINK-3560,1 51859U 22022H   24223.56594301  .00003356  00000-0  22883-3 0  9995,2 51859  53.2175  75.4552 0001205  82.4426 277.6703 15.08843409136188,6917.87,95.437,540.569,538.901,0.0
